SKYKRAFT-1A             
1 55054U 23001AX  26068.71064616  .00008177  00000+0  30069-3 0  9991
2 55054  97.3349 127.6290 0011277 121.5092 238.7251 15.28083228176529
STARLINK-31750          
1 59552U 24074U   26068.09884508 -.00002253  00000+0 -72380-4 0  9994
2 59552  43.0053 346.8855 0001350 260.2183  99.8516 15.27567967105923
